OBJECT_NAME,OBJECT_ID,EPOCH,MEAN_MOTION,ECCENTRICITY,INCLINATION,RA_OF_ASC_NODE,ARG_OF_PERICENTER,MEAN_ANOMALY,EPHEMERIS_TYPE,CLASSIFICATION_TYPE,NORAD_CAT_ID,ELEMENT_SET_NO,REV_AT_EPOCH,BSTAR,MEAN_MOTION_DOT,MEAN_MOTION_DDOT
STARLINK-36995,2026-049B,2026-03-19T06:22:43.389408,16.02629136,.0000959,97.2800,97.7985,13.3742,346.7563,0,U,68143,999,91,-.90105E-3,-.531426E-2,.10413E-3
STARLINK-37020,2026-049C,2026-03-19T12:20:37.301568,16.04472428,.00004674,97.2794,98.0724,166.1555,193.9739,0,U,68144,999,95,.15013758E-2,.978873E-2,.50884471E-3
STARLINK-36244,2026-049D,2026-03-19T00:20:18.810240,16.04211622,.0000395,97.2798,97.5283,95.7237,264.4089,0,U,68145,999,87,-.62437E-3,-.404794E-2,.63915E-4
STARLINK-36980,2026-049E,2026-03-19T13:49:53.120928,16.02210843,.00004697,97.2792,98.1417,81.7263,278.4070,0,U,68146,999,96,-.10788069E-2,-.620452E-2,.13835533E-3
STARLINK-37055,2026-049F,2026-03-19T12:21:42.575040,16.02010555,.0002763,97.2798,98.0710,38.6438,321.5038,0,U,68147,999,95,-.62842E-3,-.358165E-2,.4958E-4
STARLINK-36981,2026-049G,2026-03-19T12:18:54.316224,16.00484791,.0009222,97.2791,98.0740,123.9534,236.2623,0,U,68148,999,95,-.87998E-2,-.4741621E-1,.76603E-2
STARLINK-36992,2026-049H,2026-03-19T12:18:40.975200,16.03449672,.00058926,97.2794,98.0748,16.2793,343.8675,0,U,68149,999,95,.90936275E-3,.56212E-2,.14894956E-3
STARLINK-37060,2026-049J,2026-03-19T12:18:16.376256,16.03397341,.000386,97.2790,98.0753,339.2818,20.8305,0,U,68150,999,95,.83559E-3,.514433E-2,.12358E-3
STARLINK-37073,2026-049K,2026-03-19T12:17:46.658976,16.03149567,.0000583,97.2790,98.0750,352.5845,7.5426,0,U,68151,999,95,-.81365E-3,-.494902E-2,.91744E-4
STARLINK-37049,2026-049L,2026-03-19T00:18:24.647328,16.04917116,.0000474,97.2794,97.5302,89.6838,270.4498,0,U,68152,999,87,-.61657E-3,-.417006E-2,.68149E-4
STARLINK-37072,2026-049M,2026-03-19T12:16:50.098080,16.03506250,.0002614,97.2788,98.0760,12.6003,347.5342,0,U,68153,999,95,-.25962E-3,-.162025E-2,.12479E-4
STARLINK-36241,2026-049N,2026-03-19T12:15:49.006368,16.03790974,.0002702,97.2787,98.0764,13.1240,347.0110,0,U,68154,999,95,-.21485E-3,-.136495E-2,.95698E-5
STARLINK-37048,2026-049P,2026-03-19T07:45:22.656096,16.04907380,.0002251,97.2786,97.8732,149.8692,210.2719,0,U,68155,999,92,.15061E-3,.101037E-2,.66606E-5
STARLINK-36313,2026-049Q,2026-03-19T12:15:24.149088,16.03927223,.0002314,97.2787,98.0771,1.4479,358.6808,0,U,68156,999,95,-.26937E-3,-.172305E-2,.13864E-4
STARLINK-37064,2026-049R,2026-03-19T12:16:14.522880,16.03667729,.00022388,97.2784,98.0764,357.8304,2.2966,0,U,68157,999,95,-.22898351E-3,-.144348E-2,.10411467E-4
STARLINK-37069,2026-049S,2026-03-19T12:13:33.650400,16.06600253,.0001368,97.2784,98.0788,7.2640,352.8662,0,U,68158,999,95,.14785E-2,.1093981E-1,.68408E-3
STARLINK-37053,2026-049T,2026-03-19T07:44:16.985184,16.05261971,.00025313,97.2784,97.8738,141.0873,219.0591,0,U,68159,999,92,.95454192E-4,.65181E-3,.4110318E-5
STARLINK-36306,2026-049U,2026-03-19T12:13:21.534528,16.04569636,.0002364,97.2782,98.0789,13.0399,347.0943,0,U,68160,999,95,-.30343808E-3,-.201573E-2,.18201465E-4
STARLINK-37057,2026-049V,2026-03-20T19:44:00.954528,15.99652779,.00005165,97.2774,99.5066,61.6825,298.4505,0,U,68161,999,116,-.15396315E-2,-.764003E-2,.19799191E-3
STARLINK-37013,2026-049W,2026-03-21T06:09:46.332864,16.02635824,.00128173,97.2751,99.9893,297.6978,62.3001,0,U,68162,999,123,.61516568E-2,.3031931E-1,.1280841E-1
STARLINK-36958,2026-049X,2026-03-21T00:11:09.324384,15.99834123,.00015308,97.2762,99.7144,151.8774,208.2587,0,U,68163,999,119,-.11261656E-2,-.565483E-2,.11311572E-3
STARLINK-37002,2026-049Y,2026-03-20T19:41:35.358432,16.00359997,.0000568,97.2773,99.5096,170.3743,189.7546,0,U,68164,999,116,-.92965787E-3,-.481185E-2,.84172413E-4
STARLINK-36971,2026-049Z,2026-03-21T03:10:45.749280,15.99636512,.00022277,97.2759,99.8506,142.1373,218.0062,0,U,68165,999,121,-.66881456E-3,-.332791E-2,.4208313E-4
STARLINK-36273,2026-049AA,2026-03-20T18:09:04.725216,16.01239572,.00006488,97.2750,99.4439,211.7263,148.3977,0,U,68166,999,115,-.5628694E-3,-.306844E-2,.36956624E-4
STARLINK-36969,2026-050A,2026-03-19T13:41:02.541120,15.97343210,.0000488,53.1618,232.5443,318.1927,41.9065,0,U,68167,999,203,-.16788E-2,-.762286E-2,.19812E-3
STARLINK-36984,2026-050B,2026-03-19T13:40:45.953184,15.97468217,.0000565,53.1620,232.5441,333.0752,27.0248,0,U,68168,999,203,-.16463E-2,-.752821E-2,.194E-3
STARLINK-37077,2026-050C,2026-03-19T13:40:26.349024,15.97622802,.0000745,53.1619,232.5425,335.0992,25.0002,0,U,68169,999,203,-.16046E-2,-.740191E-2,.18853E-3
STARLINK-37003,2026-050D,2026-03-19T13:40:06.896064,15.97788708,.0000461,53.1620,232.5407,327.9149,32.1853,0,U,68170,999,203,-.15382E-2,-.716345E-2,.17815E-3
STARLINK-37034,2026-050E,2026-03-19T13:39:46.570464,15.97919140,.0000585,53.1619,232.5395,340.0636,20.0371,0,U,68171,999,203,-.15903E-2,-.745719E-2,.19165E-3
